NORAD_CAT_ID,OBJECT_NAME,OBJECT_TYPE,EPOCH,MEAN_MOTION,ECCENTRICITY,INCLINATION,RA_OF_ASC_NODE,ARG_OF_PERICENTER,MEAN_ANOMALY,BSTAR,MEAN_MOTION_DOT,MEAN_MOTION_DDOT,TLE_LINE0,TLE_LINE1,TLE_LINE2,SEMIMAJOR_AXIS,PERIOD,APOGEE,PERIGEE,DECAYED
53604.0,STARLINK-4690,PAYLOAD,2023-09-12 14:06:49,15.08847412,0.0001301,53.2186,0.0955,84.5717,275.5424,0.00010015,1.307e-05,0.0,0 STARLINK-4690,1 53604U 22104S   23255.58807815  .00001307  00000-0  10015-3 0  9997,2 53604  53.2186   0.0955 0001301  84.5717 275.5424 15.08847412 58441,6917.858,95.437,540.623,538.823,0.0
53604.0,STARLINK-4690,PAYLOAD,2023-09-13 12:22:13,15.0884923,0.000124,53.2188,355.9318,85.952,274.1614,9.9842e-05,1.302e-05,0.0,0 STARLINK-4690,1 53604U 22104S   23256.51543524  .00001302  00000-0  99842-4 0  9996,2 53604  53.2188 355.9318 0001240  85.9520 274.1614 15.08849230 58588,6917.852,95.437,540.575,538.859,0.0
53604.0,STARLINK-4690,PAYLOAD,2023-09-14 10:37:40,15.08817438,0.0001399,53.2192,351.7692,78.3874,281.7275,-0.0001978,-3.433e-05,0.0,0 STARLINK-4690,1 53604U 22104S   23257.44282698 -.00003433  00000-0 -19780-3 0  9992,2 53604  53.2192 351.7692 0001399  78.3874 281.7275 15.08817438 58037,6917.949,95.439,540.782,538.847,0.0
53604.0,STARLINK-4690,PAYLOAD,2023-09-14 12:13:03,15.08818086,0.0001467,53.2193,351.4718,78.2437,281.8719,-0.00018923,-3.296e-05,0.0,0 STARLINK-4690,1 53604U 22104S   23257.50906735 -.00003296  00000-0 -18923-3 0  9999,2 53604  53.2193 351.4718 0001467  78.2437 281.8719 15.08818086 58735,6917.947,95.439,540.827,538.798,0.0
53604.0,STARLINK-4690,PAYLOAD,2023-09-14 13:48:26,15.08818494,0.0001479,53.219,351.1739,75.9891,284.1266,-0.00019132,-3.33e-05,0.0,0 STARLINK-4690,1 53604U 22104S   23257.57530793 -.00003330  00000-0 -19132-3 0  9995,2 53604  53.2190 351.1739 0001479  75.9891 284.1266 15.08818494 58740,6917.946,95.439,540.834,538.788,0.0
53604.0,STARLINK-4690,PAYLOAD,2023-09-15 10:28:26,15.08837931,0.0001269,53.2197,347.3098,85.1737,274.94,5.8251e-06,-1.95e-06,0.0,0 STARLINK-4690,1 53604U 22104S   23258.43641494 -.00000195  00000-0  58251-5 0  9994,2 53604  53.2197 347.3098 0001269  85.1737 274.9400 15.08837931 58183,6917.887,95.438,540.63,538.874,0.0
53604.0,STARLINK-4690,PAYLOAD,2023-09-15 13:39:11,15.08845991,0.0001332,53.2192,346.7139,93.9671,266.1474,8.1551e-05,1.01e-05,0.0,0 STARLINK-4690,1 53604U 22104S   23258.56888857  .00001010  00000-0  81551-4 0  9998,2 53604  53.2192 346.7139 0001332  93.9671 266.1474 15.08845991 58899,6917.862,95.437,540.649,538.806,0.0
53604.0,STARLINK-4690,PAYLOAD,2023-09-16 10:19:13,15.08830901,0.0001481,53.2187,342.8484,67.8215,292.2935,0.00031862,4.785e-05,0.0,0 STARLINK-4690,1 53604U 22104S   23259.43001788  .00004785  00000-0  31862-3 0  9996,2 53604  53.2187 342.8484 0001481  67.8215 292.2935 15.08830901 58338,6917.908,95.438,540.798,538.749,0.0
53604.0,STARLINK-4690,PAYLOAD,2023-09-16 11:54:36,15.08833747,0.0001457,53.2185,342.5506,65.3425,294.7718,0.00030042,4.496e-05,0.0,0 STARLINK-4690,1 53604U 22104S   23259.49625669  .00004496  00000-0  30042-3 0  9990,2 53604  53.2185 342.5506 0001457  65.3425 294.7718 15.08833747 59032,6917.9,95.438,540.772,538.757,0.0
53604.0,STARLINK-4690,PAYLOAD,2023-09-17 10:09:59,15.08879052,0.0001295,53.2187,338.3893,59.401,300.7109,-0.00038506,-6.417e-05,0.0,0 STARLINK-4690,1 53604U 22104S   23260.42360383 -.00006417  00000-0 -38506-3 0  9994,2 53604  53.2187 338.3893 0001295  59.4010 300.7109 15.08879052 58489,6917.761,95.435,540.522,538.73,0.0
53604.0,STARLINK-4690,PAYLOAD,2023-09-17 11:45:22,15.08859575,0.0001669,53.2186,338.0923,69.3439,290.7732,-7.4824e-05,-1.479e-05,0.0,0 STARLINK-4690,1 53604U 22104S   23260.48984859 -.00001479  00000-0 -74824-4 0  9997,2 53604  53.2186 338.0923 0001669  69.3439 290.7732 15.08859575 59185,6917.821,95.436,540.84,538.531,0.0
53604.0,STARLINK-4690,PAYLOAD,2023-09-17 22:53:05,15.0883777,0.0001406,53.2184,336.0107,69.7353,290.379,0.00027609,4.108e-05,0.0,0 STARLINK-4690,1 53604U 22104S   23260.95353398  .00004108  00000-0  27609-3 0  9995,2 53604  53.2184 336.0107 0001406  69.7353 290.3790 15.08837770 58567,6917.887,95.438,540.725,538.78,0.0
53604.0,STARLINK-4690,PAYLOAD,2023-09-18 10:00:48,15.08813327,0.000138,53.2194,333.9282,80.0663,280.0485,0.00041077,6.251e-05,0.0,0 STARLINK-4690,1 53604U 22104S   23261.41722485  .00006251  00000-0  41077-3 0  9990,2 53604  53.2194 333.9282 0001380  80.0663 280.0485 15.08813327 58636,6917.962,95.439,540.782,538.872,0.0
53604.0,STARLINK-4690,PAYLOAD,2023-09-18 11:36:11,15.08811016,0.0001717,53.2199,333.6305,81.9166,278.2021,0.00046909,7.18e-05,0.0,0 STARLINK-4690,1 53604U 22104S   23261.48346181  .00007180  00000-0  46909-3 0  9993,2 53604  53.2199 333.6305 0001717  81.9166 278.2021 15.08811016 59332,6917.969,95.439,541.022,538.646,0.0
53604.0,STARLINK-4690,PAYLOAD,2023-09-18 16:22:18,15.08853758,0.0001486,53.2197,332.735,111.4031,248.7119,3.8355e-05,3.23e-06,0.0,0 STARLINK-4690,1 53604U 22104S   23261.68216233  .00000323  00000-0  38355-4 0  9998,2 53604  53.2197 332.7350 0001486 111.4031 248.7119 15.08853758 58678,6917.838,95.437,540.731,538.675,0.0
53604.0,STARLINK-4690,PAYLOAD,2023-09-19 09:51:33,15.08846432,0.0001558,53.2188,329.4686,75.1152,285.0013,3.555e-05,2.78e-06,0.0,0 STARLINK-4690,1 53604U 22104S   23262.41080660  .00000278  00000-0  35550-4 0  9996,2 53604  53.2188 329.4686 0001558  75.1152 285.0013 15.08846432 58783,6917.861,95.437,540.804,538.648,0.0
53604.0,STARLINK-4690,PAYLOAD,2023-09-19 14:37:41,15.08859359,0.0001494,53.2191,328.5753,90.3501,269.7662,0.00016763,2.382e-05,0.0,0 STARLINK-4690,1 53604U 22104S   23262.60951255  .00002382  00000-0  16763-3 0  9996,2 53604  53.2191 328.5753 0001494  90.3501 269.7662 15.08859359 58813,6917.821,95.436,540.72,538.653,0.0
53604.0,STARLINK-4690,PAYLOAD,2023-09-20 03:20:49,15.0881928,0.0001495,53.2189,326.1906,121.7474,238.3664,-0.0001292,-2.342e-05,0.0,0 STARLINK-4690,1 53604U 22104S   23263.13946668 -.00002342  00000-0 -12920-3 0  9996,2 53604  53.2189 326.1906 0001495 121.7474 238.3664 15.08819280 58894,6917.944,95.439,540.843,538.774,0.0
53604.0,STARLINK-4690,PAYLOAD,2023-09-20 09:42:22,15.08826761,0.0001572,53.2197,325.0078,108.0958,252.0205,-5.6645e-05,-1.189e-05,0.0,0 STARLINK-4690,1 53604U 22104S   23263.40442328 -.00001189  00000-0 -56645-4 0  9991,2 53604  53.2197 325.0078 0001572 108.0958 252.0205 15.08826761 58933,6917.921,95.438,540.873,538.698,0.0
53604.0,STARLINK-4690,PAYLOAD,2023-09-20 12:53:08,15.08834938,0.0001321,53.2187,324.4127,98.1718,261.9424,-6.3032e-05,-1.291e-05,0.0,0 STARLINK-4690,1 53604U 22104S   23263.53689899 -.00001291  00000-0 -63032-4 0  9993,2 53604  53.2187 324.4127 0001321  98.1718 261.9424 15.08834938 59641,6917.896,95.438,540.675,538.847,0.0
53604.0,STARLINK-4690,PAYLOAD,2023-09-21 09:33:08,15.08839327,0.0001532,53.218,320.5473,107.4075,252.7085,1.3519e-05,-7.3e-07,0.0,0 STARLINK-4690,1 53604U 22104S   23264.39801639 -.00000073  00000-0  13519-4 0  9997,2 53604  53.2180 320.5473 0001532 107.4075 252.7085 15.08839327 59771,6917.882,95.438,540.807,538.688,0.0
53604.0,STARLINK-4690,PAYLOAD,2023-09-21 20:40:50,15.08841717,0.0001374,53.2177,318.4648,94.4966,265.6183,5.4421e-05,5.78e-06,0.0,0 STARLINK-4690,1 53604U 22104S   23264.86169687  .00000578  00000-0  54421-4 0  9995,2 53604  53.2177 318.4648 0001374  94.4966 265.6183 15.08841717 59841,6917.875,95.437,540.691,538.79,0.0
53604.0,STARLINK-4690,PAYLOAD,2023-09-22 10:59:19,15.0884586,0.0001399,53.2175,315.7881,96.0426,264.0725,0.00029201,4.363e-05,0.0,0 STARLINK-4690,1 53604U 22104S   23265.45785896  .00004363  00000-0  29201-3 0  9990,2 53604  53.2175 315.7881 0001399  96.0426 264.0725 15.08845860 59246,6917.862,95.437,540.695,538.76,0.0
53604.0,STARLINK-4690,PAYLOAD,2023-09-22 20:31:37,15.08839027,9.37e-05,53.2172,314.0043,105.5781,254.5314,3.7352e-05,3.07e-06,0.0,0 STARLINK-4690,1 53604U 22104S   23265.85529831  .00000307  00000-0  37352-4 0  9990,2 53604  53.2172 314.0043 0000937 105.5781 254.5314 15.08839027 59990,6917.883,95.438,540.397,539.1,0.0
53604.0,STARLINK-4690,PAYLOAD,2023-09-22 23:42:24,15.08839197,0.0001275,53.2172,313.4089,100.3675,259.7461,4.9437e-05,4.99e-06,0.0,0 STARLINK-4690,1 53604U 22104S   23265.98777958  .00000499  00000-0  49437-4 0  9998,2 53604  53.2172 313.4089 0001275 100.3675 259.7461 15.08839197 59329,6917.883,95.438,540.63,538.866,0.0
53604.0,STARLINK-4690,PAYLOAD,2023-09-23 10:50:05,15.08852167,0.000137,53.2165,311.3278,95.2033,264.9116,0.0003198,4.807e-05,0.0,0 STARLINK-4690,1 53604U 22104S   23266.45145523  .00004807  00000-0  31980-3 0  9998,2 53604  53.2165 311.3278 0001370  95.2033 264.9116 15.08852167 59398,6917.843,95.437,540.656,538.76,0.0
53604.0,STARLINK-4690,PAYLOAD,2023-09-24 02:43:57,15.0884405,0.0001636,53.217,308.3552,82.7913,277.3265,0.00012127,1.643e-05,0.0,0 STARLINK-4690,1 53604U 22104S   23267.11385844  .00001643  00000-0  12127-3 0  9991,2 53604  53.2170 308.3552 0001636  82.7913 277.3265 15.08844050 59494,6917.868,95.437,540.865,538.601,0.0
53604.0,STARLINK-4690,PAYLOAD,2023-09-24 12:16:15,15.08850487,0.0001528,53.217,306.5699,87.0251,273.0916,0.00016473,2.335e-05,0.0,0 STARLINK-4690,1 53604U 22104S   23267.51129445  .00002335  00000-0  16473-3 0  9995,2 53604  53.2170 306.5699 0001528  87.0251 273.0916 15.08850487 60241,6917.848,95.437,540.77,538.656,0.0
53604.0,STARLINK-4690,PAYLOAD,2023-09-25 08:56:16,15.08849339,0.0001514,53.2166,302.7042,96.126,263.9904,0.00018524,2.662e-05,0.0,0 STARLINK-4690,1 53604U 22104S   23268.37241446  .00002662  00000-0  18524-3 0  9998,2 53604  53.2166 302.7042 0001514  96.1260 263.9904 15.08849339 59687,6917.852,95.437,540.764,538.669,0.0
53604.0,STARLINK-4690,PAYLOAD,2023-09-25 12:07:02,15.08851713,0.0001602,53.2169,302.1087,92.1863,267.9313,0.00019579,2.83e-05,0.0,0 STARLINK-4690,1 53604U 22104S   23268.50489308  .00002830  00000-0  19579-3 0  9992,2 53604  53.2169 302.1087 0001602  92.1863 267.9313 15.08851713 60393,6917.845,95.437,540.818,538.601,0.0
